; G-code for asemic writing
; Working area: 0-110mm X, 0-75mm Y
G90 ; Absolute positioning
G21 ; Set units to mm
G1 Z0 F300 ; Pen up
G0 X10.000 Y19.167 F600
G1 Z10 F300 ; Pen down
G1 X10.448 Y17.192 F400
G1 X10.895 Y15.456 F400
G1 X11.343 Y14.168 F400
G1 X11.791 Y13.482 F400
G1 X12.238 Y13.482 F400
G1 X12.686 Y14.168 F400
G1 X13.134 Y15.456 F400
G1 X13.581 Y17.192 F400
G1 X14.029 Y19.167 F400
G1 Z0 F300 ; Pen up
G0 X15.036 Y17.697 F600
G1 Z10 F300 ; Pen down
G1 X16.043 Y16.806 F400
G1 X17.051 Y17.002 F400
G1 X18.058 Y19.001 F400
G1 X19.065 Y17.140 F400
G1 Z0 F300 ; Pen up
G0 X23.837 Y14.512 F600
G1 Z10 F300 ; Pen down
G1 X23.790 Y14.848 F400
G1 X23.655 Y15.159 F400
G1 X23.441 Y15.423 F400
G1 X23.164 Y15.618 F400
G1 X22.844 Y15.732 F400
G1 X22.505 Y15.755 F400
G1 X22.173 Y15.686 F400
G1 X21.872 Y15.530 F400
G1 X21.623 Y15.298 F400
G1 X21.447 Y15.008 F400
G1 X21.356 Y14.681 F400
G1 X21.356 Y14.342 F400
G1 X21.447 Y14.015 F400
G1 X21.623 Y13.725 F400
G1 X21.872 Y13.493 F400
G1 X22.173 Y13.337 F400
G1 X22.505 Y13.268 F400
G1 X22.844 Y13.291 F400
G1 X23.164 Y13.405 F400
G1 X23.441 Y13.601 F400
G1 X23.655 Y13.864 F400
G1 X23.790 Y14.175 F400
G1 X23.837 Y14.512 F400
G1 X23.837 Y14.512 F400
G1 Z0 F300 ; Pen up
G0 X25.108 Y19.167 F600
G1 Z10 F300 ; Pen down
G1 X25.556 Y16.883 F400
G1 X26.004 Y14.875 F400
G1 X26.451 Y13.385 F400
G1 X26.899 Y12.592 F400
G1 X27.347 Y12.592 F400
G1 X27.794 Y13.385 F400
G1 X28.242 Y14.875 F400
G1 X28.690 Y16.883 F400
G1 X29.137 Y19.167 F400
G1 Z0 F300 ; Pen up
G0 X36.276 Y19.167 F600
G1 Z10 F300 ; Pen down
G1 X36.276 Y12.116 F400
G1 X38.655 Y12.116 F400
G1 Z0 F300 ; Pen up
G0 X44.052 Y14.472 F600
G1 Z10 F300 ; Pen down
G1 X44.013 Y14.762 F400
G1 X43.896 Y15.030 F400
G1 X43.711 Y15.257 F400
G1 X43.472 Y15.426 F400
G1 X43.196 Y15.524 F400
G1 X42.904 Y15.544 F400
G1 X42.617 Y15.485 F400
G1 X42.357 Y15.350 F400
G1 X42.143 Y15.150 F400
G1 X41.991 Y14.900 F400
G1 X41.912 Y14.618 F400
G1 X41.912 Y14.325 F400
G1 X41.991 Y14.043 F400
G1 X42.143 Y13.793 F400
G1 X42.357 Y13.593 F400
G1 X42.617 Y13.458 F400
G1 X42.904 Y13.399 F400
G1 X43.196 Y13.419 F400
G1 X43.472 Y13.517 F400
G1 X43.711 Y13.686 F400
G1 X43.896 Y13.913 F400
G1 X44.013 Y14.181 F400
G1 X44.052 Y14.472 F400
G1 X44.052 Y14.472 F400
G1 Z0 F300 ; Pen up
G0 X45.211 Y19.167 F600
G1 Z10 F300 ; Pen down
G1 X45.608 Y16.919 F400
G1 X46.005 Y14.943 F400
G1 X46.402 Y13.476 F400
G1 X46.799 Y12.695 F400
G1 X47.196 Y12.695 F400
G1 X47.594 Y13.476 F400
G1 X47.991 Y14.943 F400
G1 X48.388 Y16.919 F400
G1 X48.785 Y19.167 F400
G1 Z0 F300 ; Pen up
G0 X56.255 Y18.931 F600
G1 Z10 F300 ; Pen down
G1 X56.950 Y17.066 F400
G1 X57.644 Y16.320 F400
G1 X58.339 Y17.870 F400
G1 X59.033 Y18.498 F400
G1 Z0 F300 ; Pen up
G0 X59.728 Y19.167 F600
G1 Z10 F300 ; Pen down
G1 X60.769 Y16.171 F400
G1 X61.811 Y13.176 F400
G1 X62.853 Y17.370 F400
G1 Z0 F300 ; Pen up
G0 X63.200 Y19.167 F600
G1 Z10 F300 ; Pen down
G1 X64.242 Y15.986 F400
G1 X65.283 Y12.806 F400
G1 X66.325 Y17.258 F400
G1 Z0 F300 ; Pen up
G0 X66.672 Y19.167 F600
G1 Z10 F300 ; Pen down
G1 X66.981 Y16.589 F400
G1 X67.290 Y14.321 F400
G1 X67.598 Y12.639 F400
G1 X67.907 Y11.743 F400
G1 X68.216 Y11.743 F400
G1 X68.524 Y12.639 F400
G1 X68.833 Y14.321 F400
G1 X69.142 Y16.589 F400
G1 X69.450 Y19.167 F400
G1 Z0 F300 ; Pen up
G0 X70.145 Y19.167 F600
G1 Z10 F300 ; Pen down
G1 X70.453 Y17.519 F400
G1 X70.762 Y16.070 F400
G1 X71.071 Y14.995 F400
G1 X71.379 Y14.423 F400
G1 X71.688 Y14.423 F400
G1 X71.997 Y14.995 F400
G1 X72.305 Y16.070 F400
G1 X72.614 Y17.519 F400
G1 X72.923 Y19.167 F400
G1 Z0 F300 ; Pen up
G0 X78.832 Y19.167 F600
G1 Z10 F300 ; Pen down
G1 X79.849 Y17.411 F400
G1 X80.866 Y15.656 F400
G1 X81.883 Y18.113 F400
G1 Z0 F300 ; Pen up
G0 X84.858 Y15.161 F600
G1 Z10 F300 ; Pen down
G1 X84.823 Y15.414 F400
G1 X84.721 Y15.649 F400
G1 X84.559 Y15.848 F400
G1 X84.350 Y15.996 F400
G1 X84.108 Y16.082 F400
G1 X83.853 Y16.099 F400
G1 X83.602 Y16.047 F400
G1 X83.375 Y15.929 F400
G1 X83.187 Y15.754 F400
G1 X83.054 Y15.535 F400
G1 X82.985 Y15.289 F400
G1 X82.985 Y15.033 F400
G1 X83.054 Y14.786 F400
G1 X83.187 Y14.567 F400
G1 X83.375 Y14.392 F400
G1 X83.602 Y14.274 F400
G1 X83.853 Y14.222 F400
G1 X84.108 Y14.240 F400
G1 X84.350 Y14.325 F400
G1 X84.559 Y14.473 F400
G1 X84.721 Y14.672 F400
G1 X84.823 Y14.907 F400
G1 X84.858 Y15.161 F400
G1 X84.858 Y15.161 F400
G1 Z0 F300 ; Pen up
G0 X86.968 Y16.429 F600
G1 Z10 F300 ; Pen down
G1 X86.894 Y15.540 F400
G1 X86.682 Y14.748 F400
G1 X86.353 Y14.137 F400
G1 X85.945 Y13.775 F400
G1 X85.500 Y13.701 F400
G1 X85.067 Y13.922 F400
G1 X84.693 Y14.415 F400
G1 X84.419 Y15.126 F400
G1 X84.274 Y15.978 F400
G1 X84.274 Y16.880 F400
G1 X84.419 Y17.732 F400
G1 X84.693 Y18.443 F400
G1 X85.067 Y18.936 F400
G1 X85.500 Y19.157 F400
G1 X85.945 Y19.083 F400
G1 X86.353 Y18.721 F400
G1 X86.682 Y18.111 F400
G1 X86.894 Y17.318 F400
G1 X86.968 Y16.429 F400
G1 X86.968 Y16.429 F400
G1 Z0 F300 ; Pen up
G0 X89.001 Y16.467 F600
G1 Z10 F300 ; Pen down
G1 X89.679 Y16.899 F400
G1 X90.357 Y15.477 F400
G1 X91.035 Y14.982 F400
G1 X91.713 Y17.005 F400
G1 Z0 F300 ; Pen up
G0 X13.177 Y24.464 F600
G1 Z10 F300 ; Pen down
G1 X13.125 Y24.846 F400
G1 X12.971 Y25.199 F400
G1 X12.728 Y25.498 F400
G1 X12.413 Y25.720 F400
G1 X12.050 Y25.849 F400
G1 X11.666 Y25.876 F400
G1 X11.288 Y25.797 F400
G1 X10.946 Y25.620 F400
G1 X10.664 Y25.357 F400
G1 X10.464 Y25.028 F400
G1 X10.360 Y24.657 F400
G1 X10.360 Y24.271 F400
G1 X10.464 Y23.900 F400
G1 X10.664 Y23.571 F400
G1 X10.946 Y23.308 F400
G1 X11.288 Y23.131 F400
G1 X11.666 Y23.052 F400
G1 X12.050 Y23.079 F400
G1 X12.413 Y23.208 F400
G1 X12.728 Y23.430 F400
G1 X12.971 Y23.729 F400
G1 X13.125 Y24.082 F400
G1 X13.177 Y24.464 F400
G1 X13.177 Y24.464 F400
G1 Z0 F300 ; Pen up
G0 X16.623 Y25.224 F600
G1 Z10 F300 ; Pen down
G1 X16.574 Y25.585 F400
G1 X16.429 Y25.919 F400
G1 X16.199 Y26.202 F400
G1 X15.901 Y26.412 F400
G1 X15.558 Y26.533 F400
G1 X15.195 Y26.558 F400
G1 X14.839 Y26.484 F400
G1 X14.515 Y26.317 F400
G1 X14.249 Y26.068 F400
G1 X14.060 Y25.757 F400
G1 X13.962 Y25.406 F400
G1 X13.962 Y25.042 F400
G1 X14.060 Y24.692 F400
G1 X14.249 Y24.381 F400
G1 X14.515 Y24.132 F400
G1 X14.839 Y23.964 F400
G1 X15.195 Y23.890 F400
G1 X15.558 Y23.915 F400
G1 X15.901 Y24.037 F400
G1 X16.199 Y24.247 F400
G1 X16.429 Y24.530 F400
G1 X16.574 Y24.864 F400
G1 X16.623 Y25.224 F400
G1 X16.623 Y25.224 F400
G1 Z0 F300 ; Pen up
G0 X17.048 Y28.333 F600
G1 Z10 F300 ; Pen down
G1 X17.048 Y23.341 F400
G1 X19.924 Y23.341 F400
G1 Z0 F300 ; Pen up
G0 X20.573 Y28.333 F600
G1 Z10 F300 ; Pen down
G1 X20.886 Y26.782 F400
G1 X21.199 Y25.417 F400
G1 X21.512 Y24.404 F400
G1 X21.826 Y23.866 F400
G1 X22.139 Y23.866 F400
G1 X22.452 Y24.404 F400
G1 X22.765 Y25.417 F400
G1 X23.079 Y26.782 F400
G1 X23.392 Y28.333 F400
G1 Z0 F300 ; Pen up
G0 X27.242 Y25.180 F600
G1 Z10 F300 ; Pen down
G1 X27.190 Y25.553 F400
G1 X27.040 Y25.898 F400
G1 X26.803 Y26.190 F400
G1 X26.495 Y26.408 F400
G1 X26.140 Y26.534 F400
G1 X25.765 Y26.559 F400
G1 X25.396 Y26.483 F400
G1 X25.062 Y26.310 F400
G1 X24.786 Y26.053 F400
G1 X24.591 Y25.731 F400
G1 X24.489 Y25.368 F400
G1 X24.489 Y24.992 F400
G1 X24.591 Y24.629 F400
G1 X24.786 Y24.307 F400
G1 X25.062 Y24.050 F400
G1 X25.396 Y23.877 F400
G1 X25.765 Y23.800 F400
G1 X26.140 Y23.826 F400
G1 X26.495 Y23.952 F400
G1 X26.803 Y24.169 F400
G1 X27.040 Y24.461 F400
G1 X27.190 Y24.807 F400
G1 X27.242 Y25.180 F400
G1 X27.242 Y25.180 F400
G1 Z0 F300 ; Pen up
G0 X29.031 Y26.210 F600
G1 Z10 F300 ; Pen down
G1 X28.954 Y25.521 F400
G1 X28.733 Y24.906 F400
G1 X28.392 Y24.433 F400
G1 X27.967 Y24.152 F400
G1 X27.505 Y24.094 F400
G1 X27.055 Y24.266 F400
G1 X26.666 Y24.648 F400
G1 X26.381 Y25.200 F400
G1 X26.231 Y25.861 F400
G1 X26.231 Y26.560 F400
G1 X26.381 Y27.221 F400
G1 X26.666 Y27.772 F400
G1 X27.055 Y28.155 F400
G1 X27.505 Y28.326 F400
G1 X27.967 Y28.268 F400
G1 X28.392 Y27.988 F400
G1 X28.733 Y27.514 F400
G1 X28.954 Y26.900 F400
G1 X29.031 Y26.210 F400
G1 X29.031 Y26.210 F400
G1 Z0 F300 ; Pen up
G0 X38.808 Y28.333 F600
G1 Z10 F300 ; Pen down
G1 X39.751 Y26.451 F400
G1 X40.695 Y24.568 F400
G1 X41.638 Y27.204 F400
G1 Z0 F300 ; Pen up
G0 X41.953 Y28.333 F600
G1 Z10 F300 ; Pen down
G1 X42.233 Y26.930 F400
G1 X42.512 Y25.695 F400
G1 X42.792 Y24.779 F400
G1 X43.071 Y24.292 F400
G1 X43.351 Y24.292 F400
G1 X43.630 Y24.779 F400
G1 X43.910 Y25.695 F400
G1 X44.190 Y26.930 F400
G1 X44.469 Y28.333 F400
G1 Z0 F300 ; Pen up
G0 X45.098 Y28.333 F600
G1 Z10 F300 ; Pen down
G1 X46.042 Y26.559 F400
G1 X46.985 Y24.784 F400
G1 X47.929 Y27.269 F400
G1 Z0 F300 ; Pen up
G0 X50.796 Y25.644 F600
G1 Z10 F300 ; Pen down
G1 X50.759 Y25.908 F400
G1 X50.653 Y26.153 F400
G1 X50.485 Y26.360 F400
G1 X50.267 Y26.513 F400
G1 X50.015 Y26.603 F400
G1 X49.749 Y26.621 F400
G1 X49.488 Y26.567 F400
G1 X49.251 Y26.444 F400
G1 X49.056 Y26.262 F400
G1 X48.917 Y26.034 F400
G1 X48.845 Y25.777 F400
G1 X48.845 Y25.510 F400
G1 X48.917 Y25.253 F400
G1 X49.056 Y25.025 F400
G1 X49.251 Y24.843 F400
G1 X49.488 Y24.720 F400
G1 X49.749 Y24.666 F400
G1 X50.015 Y24.684 F400
G1 X50.267 Y24.774 F400
G1 X50.485 Y24.928 F400
G1 X50.653 Y25.135 F400
G1 X50.759 Y25.379 F400
G1 X50.796 Y25.644 F400
G1 X50.796 Y25.644 F400
G1 Z0 F300 ; Pen up
G0 X56.631 Y28.333 F600
G1 Z10 F300 ; Pen down
G1 X56.631 Y24.739 F400
G1 X57.932 Y24.739 F400
G1 Z0 F300 ; Pen up
G0 X61.910 Y28.333 F600
G1 Z10 F300 ; Pen down
G1 X63.493 Y26.286 F400
G1 X65.077 Y24.239 F400
G1 X66.661 Y27.105 F400
G1 Z0 F300 ; Pen up
G0 X69.300 Y25.741 F600
G1 Z10 F300 ; Pen down
G1 X69.186 Y24.899 F400
G1 X68.855 Y24.149 F400
G1 X68.344 Y23.571 F400
G1 X67.707 Y23.228 F400
G1 X67.014 Y23.157 F400
G1 X66.341 Y23.367 F400
G1 X65.759 Y23.834 F400
G1 X65.332 Y24.507 F400
G1 X65.106 Y25.314 F400
G1 X65.106 Y26.168 F400
G1 X65.332 Y26.975 F400
G1 X65.759 Y27.648 F400
G1 X66.341 Y28.115 F400
G1 X67.014 Y28.324 F400
G1 X67.707 Y28.254 F400
G1 X68.344 Y27.911 F400
G1 X68.855 Y27.333 F400
G1 X69.186 Y26.583 F400
G1 X69.300 Y25.741 F400
G1 X69.300 Y25.741 F400
G1 Z0 F300 ; Pen up
G0 X78.711 Y26.184 F600
G1 Z10 F300 ; Pen down
G1 X79.621 Y27.751 F400
G1 X80.531 Y26.988 F400
G1 X81.441 Y26.001 F400
G1 X82.351 Y25.934 F400
G1 Z0 F300 ; Pen up
G0 X83.261 Y28.333 F600
G1 Z10 F300 ; Pen down
G1 X84.625 Y25.690 F400
G1 X85.990 Y23.047 F400
G1 X87.355 Y26.747 F400
G1 Z0 F300 ; Pen up
G0 X87.810 Y28.333 F600
G1 Z10 F300 ; Pen down
G1 X88.214 Y26.209 F400
G1 X88.619 Y24.340 F400
G1 X89.023 Y22.954 F400
G1 X89.428 Y22.216 F400
G1 X89.832 Y22.216 F400
G1 X90.236 Y22.954 F400
G1 X90.641 Y24.340 F400
G1 X91.045 Y26.209 F400
G1 X91.450 Y28.333 F400
G1 Z0 F300 ; Pen up
G0 X10.000 Y34.846 F600
G1 Z10 F300 ; Pen down
G1 X10.603 Y34.434 F400
G1 X11.206 Y34.587 F400
G1 X11.809 Y36.013 F400
G1 X12.412 Y37.476 F400
G1 Z0 F300 ; Pen up
G0 X14.221 Y35.390 F600
G1 Z10 F300 ; Pen down
G1 X14.155 Y34.705 F400
G1 X13.967 Y34.094 F400
G1 X13.674 Y33.624 F400
G1 X13.311 Y33.345 F400
G1 X12.915 Y33.288 F400
G1 X12.530 Y33.458 F400
G1 X12.198 Y33.838 F400
G1 X11.954 Y34.386 F400
G1 X11.825 Y35.043 F400
G1 X11.825 Y35.738 F400
G1 X11.954 Y36.394 F400
G1 X12.198 Y36.942 F400
G1 X12.530 Y37.322 F400
G1 X12.915 Y37.493 F400
G1 X13.311 Y37.435 F400
G1 X13.674 Y37.156 F400
G1 X13.967 Y36.686 F400
G1 X14.155 Y36.075 F400
G1 X14.221 Y35.390 F400
G1 X14.221 Y35.390 F400
G1 Z0 F300 ; Pen up
G0 X16.030 Y37.500 F600
G1 Z10 F300 ; Pen down
G1 X16.298 Y35.364 F400
G1 X16.566 Y33.486 F400
G1 X16.834 Y32.091 F400
G1 X17.102 Y31.350 F400
G1 X17.370 Y31.350 F400
G1 X17.638 Y32.091 F400
G1 X17.906 Y33.486 F400
G1 X18.174 Y35.364 F400
G1 X18.442 Y37.500 F400
G1 Z0 F300 ; Pen up
G0 X19.045 Y36.359 F600
G1 Z10 F300 ; Pen down
G1 X19.648 Y36.733 F400
G1 X20.251 Y37.147 F400
G1 X20.854 Y36.909 F400
G1 X21.457 Y36.956 F400
G1 Z0 F300 ; Pen up
G0 X22.060 Y37.500 F600
G1 Z10 F300 ; Pen down
G1 X22.328 Y36.005 F400
G1 X22.596 Y34.691 F400
G1 X22.864 Y33.715 F400
G1 X23.132 Y33.196 F400
G1 X23.399 Y33.196 F400
G1 X23.667 Y33.715 F400
G1 X23.935 Y34.691 F400
G1 X24.203 Y36.005 F400
G1 X24.471 Y37.500 F400
G1 Z0 F300 ; Pen up
G0 X25.074 Y37.500 F600
G1 Z10 F300 ; Pen down
G1 X25.342 Y35.230 F400
G1 X25.610 Y33.234 F400
G1 X25.878 Y31.752 F400
G1 X26.146 Y30.963 F400
G1 X26.414 Y30.963 F400
G1 X26.682 Y31.752 F400
G1 X26.950 Y33.234 F400
G1 X27.218 Y35.230 F400
G1 X27.486 Y37.500 F400
G1 Z0 F300 ; Pen up
G0 X28.089 Y37.500 F600
G1 Z10 F300 ; Pen down
G1 X28.089 Y31.024 F400
G1 X30.428 Y31.024 F400
G1 Z0 F300 ; Pen up
G0 X31.104 Y37.500 F600
G1 Z10 F300 ; Pen down
G1 X31.372 Y36.241 F400
G1 X31.640 Y35.135 F400
G1 X31.908 Y34.313 F400
G1 X32.176 Y33.876 F400
G1 X32.444 Y33.876 F400
G1 X32.712 Y34.313 F400
G1 X32.980 Y35.135 F400
G1 X33.248 Y36.241 F400
G1 X33.516 Y37.500 F400
G1 Z0 F300 ; Pen up
G0 X41.249 Y37.500 F600
G1 Z10 F300 ; Pen down
G1 X41.249 Y29.723 F400
G1 X42.931 Y29.723 F400
G1 Z0 F300 ; Pen up
G0 X43.541 Y37.500 F600
G1 Z10 F300 ; Pen down
G1 X43.744 Y35.673 F400
G1 X43.948 Y34.066 F400
G1 X44.152 Y32.873 F400
G1 X44.355 Y32.239 F400
G1 X44.559 Y32.239 F400
G1 X44.763 Y32.873 F400
G1 X44.967 Y34.066 F400
G1 X45.170 Y35.673 F400
G1 X45.374 Y37.500 F400
G1 Z0 F300 ; Pen up
G0 X45.833 Y37.500 F600
G1 Z10 F300 ; Pen down
G1 X46.520 Y34.637 F400
G1 X47.208 Y31.774 F400
G1 X47.895 Y35.782 F400
G1 Z0 F300 ; Pen up
G0 X48.125 Y37.500 F600
G1 Z10 F300 ; Pen down
G1 X48.328 Y35.252 F400
G1 X48.532 Y33.275 F400
G1 X48.736 Y31.808 F400
G1 X48.939 Y31.027 F400
G1 X49.143 Y31.027 F400
G1 X49.347 Y31.808 F400
G1 X49.551 Y33.275 F400
G1 X49.754 Y35.252 F400
G1 X49.958 Y37.500 F400
G1 Z0 F300 ; Pen up
G0 X51.333 Y35.126 F600
G1 Z10 F300 ; Pen down
G1 X51.284 Y34.355 F400
G1 X51.140 Y33.668 F400
G1 X50.918 Y33.138 F400
G1 X50.642 Y32.825 F400
G1 X50.341 Y32.760 F400
G1 X50.048 Y32.952 F400
G1 X49.796 Y33.379 F400
G1 X49.610 Y33.996 F400
G1 X49.512 Y34.735 F400
G1 X49.512 Y35.517 F400
G1 X49.610 Y36.256 F400
G1 X49.796 Y36.873 F400
G1 X50.048 Y37.300 F400
G1 X50.341 Y37.492 F400
G1 X50.642 Y37.427 F400
G1 X50.918 Y37.113 F400
G1 X51.140 Y36.584 F400
G1 X51.284 Y35.897 F400
G1 X51.333 Y35.126 F400
G1 X51.333 Y35.126 F400
G1 Z0 F300 ; Pen up
G0 X53.625 Y34.650 F600
G1 Z10 F300 ; Pen down
G1 X53.576 Y33.724 F400
G1 X53.432 Y32.899 F400
G1 X53.210 Y32.263 F400
G1 X52.934 Y31.886 F400
G1 X52.633 Y31.809 F400
G1 X52.340 Y32.039 F400
G1 X52.088 Y32.552 F400
G1 X51.902 Y33.293 F400
G1 X51.804 Y34.180 F400
G1 X51.804 Y35.119 F400
G1 X51.902 Y36.006 F400
G1 X52.088 Y36.747 F400
G1 X52.340 Y37.260 F400
G1 X52.633 Y37.490 F400
G1 X52.934 Y37.413 F400
G1 X53.210 Y37.036 F400
G1 X53.432 Y36.400 F400
G1 X53.576 Y35.575 F400
G1 X53.625 Y34.650 F400
G1 X53.625 Y34.650 F400
G1 Z0 F300 ; Pen up
G0 X55.001 Y37.500 F600
G1 Z10 F300 ; Pen down
G1 X55.204 Y34.893 F400
G1 X55.408 Y32.601 F400
G1 X55.612 Y30.899 F400
G1 X55.815 Y29.994 F400
G1 X56.019 Y29.994 F400
G1 X56.223 Y30.899 F400
G1 X56.427 Y32.601 F400
G1 X56.630 Y34.893 F400
G1 X56.834 Y37.500 F400
G1 Z0 F300 ; Pen up
G0 X63.746 Y37.500 F600
G1 Z10 F300 ; Pen down
G1 X63.746 Y30.710 F400
G1 X66.255 Y30.710 F400
G1 Z0 F300 ; Pen up
G0 X75.896 Y37.500 F600
G1 Z10 F300 ; Pen down
G1 X79.541 Y35.938 F400
G1 X83.186 Y34.376 F400
G1 X86.832 Y36.563 F400
G1 Z0 F300 ; Pen up
G0 X10.000 Y46.667 F600
G1 Z10 F300 ; Pen down
G1 X11.869 Y44.659 F400
G1 X13.738 Y42.651 F400
G1 X15.607 Y45.462 F400
G1 Z0 F300 ; Pen up
G0 X16.230 Y46.667 F600
G1 Z10 F300 ; Pen down
G1 X16.230 Y39.153 F400
G1 X18.986 Y39.153 F400
G1 Z0 F300 ; Pen up
G0 X22.460 Y46.004 F600
G1 Z10 F300 ; Pen down
G1 X23.706 Y44.356 F400
G1 X24.952 Y44.648 F400
G1 X26.198 Y44.891 F400
G1 X27.444 Y46.355 F400
G1 Z0 F300 ; Pen up
G0 X36.133 Y46.667 F600
G1 Z10 F300 ; Pen down
G1 X36.133 Y40.156 F400
G1 X38.867 Y40.156 F400
G1 Z0 F300 ; Pen up
G0 X42.754 Y46.667 F600
G1 Z10 F300 ; Pen down
G1 X44.740 Y44.711 F400
G1 X46.727 Y42.755 F400
G1 X48.713 Y45.493 F400
G1 Z0 F300 ; Pen up
G0 X49.375 Y46.667 F600
G1 Z10 F300 ; Pen down
G1 X51.361 Y44.898 F400
G1 X53.348 Y43.129 F400
G1 X55.334 Y45.605 F400
G1 Z0 F300 ; Pen up
G0 X63.720 Y43.720 F600
G1 Z10 F300 ; Pen down
G1 X63.628 Y42.763 F400
G1 X63.360 Y41.910 F400
G1 X62.946 Y41.253 F400
G1 X62.431 Y40.864 F400
G1 X61.871 Y40.784 F400
G1 X61.326 Y41.022 F400
G1 X60.855 Y41.552 F400
G1 X60.510 Y42.318 F400
G1 X60.327 Y43.235 F400
G1 X60.327 Y44.205 F400
G1 X60.510 Y45.123 F400
G1 X60.855 Y45.888 F400
G1 X61.326 Y46.418 F400
G1 X61.871 Y46.657 F400
G1 X62.431 Y46.577 F400
G1 X62.946 Y46.187 F400
G1 X63.360 Y45.530 F400
G1 X63.628 Y44.677 F400
G1 X63.720 Y43.720 F400
G1 X63.720 Y43.720 F400
G1 Z0 F300 ; Pen up
G0 X66.283 Y46.667 F600
G1 Z10 F300 ; Pen down
G1 X66.663 Y45.285 F400
G1 X67.042 Y44.070 F400
G1 X67.422 Y43.168 F400
G1 X67.802 Y42.688 F400
G1 X68.181 Y42.688 F400
G1 X68.561 Y43.168 F400
G1 X68.941 Y44.070 F400
G1 X69.320 Y45.285 F400
G1 X69.700 Y46.667 F400
G1 Z0 F300 ; Pen up
G0 X70.554 Y46.381 F600
G1 Z10 F300 ; Pen down
G1 X71.408 Y44.861 F400
G1 X72.262 Y45.780 F400
G1 X73.117 Y45.393 F400
G1 X73.971 Y44.855 F400
G1 Z0 F300 ; Pen up
G0 X74.825 Y46.667 F600
G1 Z10 F300 ; Pen down
G1 X74.825 Y40.686 F400
G1 X77.365 Y40.686 F400
G1 Z0 F300 ; Pen up
G0 X85.462 Y46.667 F600
G1 Z10 F300 ; Pen down
G1 X85.462 Y38.693 F400
G1 X88.129 Y38.693 F400
G1 Z0 F300 ; Pen up
G0 X89.152 Y44.373 F600
G1 Z10 F300 ; Pen down
G1 X89.095 Y43.628 F400
G1 X88.930 Y42.964 F400
G1 X88.675 Y42.453 F400
G1 X88.357 Y42.149 F400
G1 X88.011 Y42.087 F400
G1 X87.675 Y42.272 F400
G1 X87.384 Y42.685 F400
G1 X87.171 Y43.281 F400
G1 X87.058 Y43.995 F400
G1 X87.058 Y44.750 F400
G1 X87.171 Y45.465 F400
G1 X87.384 Y46.060 F400
G1 X87.675 Y46.473 F400
G1 X88.011 Y46.659 F400
G1 X88.357 Y46.596 F400
G1 X88.675 Y46.293 F400
G1 X88.930 Y45.782 F400
G1 X89.095 Y45.118 F400
G1 X89.152 Y44.373 F400
G1 X89.152 Y44.373 F400
G1 Z0 F300 ; Pen up
G0 X90.734 Y46.667 F600
G1 Z10 F300 ; Pen down
G1 X90.734 Y43.387 F400
G1 X92.678 Y43.387 F400
G1 Z0 F300 ; Pen up
G0 X93.369 Y45.269 F600
G1 Z10 F300 ; Pen down
G1 X93.897 Y45.242 F400
G1 X94.424 Y45.462 F400
G1 X94.951 Y44.088 F400
G1 X95.478 Y43.581 F400
G1 Z0 F300 ; Pen up
G0 X96.005 Y46.667 F600
G1 Z10 F300 ; Pen down
G1 X96.239 Y45.206 F400
G1 X96.474 Y43.922 F400
G1 X96.708 Y42.968 F400
G1 X96.942 Y42.461 F400
G1 X97.176 Y42.461 F400
G1 X97.411 Y42.968 F400
G1 X97.645 Y43.922 F400
G1 X97.879 Y45.206 F400
G1 X98.114 Y46.667 F400
G1 Z0 F300 ; Pen up
G0 X10.000 Y55.833 F600
G1 Z10 F300 ; Pen down
G1 X10.000 Y49.665 F400
G1 X11.567 Y49.665 F400
G1 Z0 F300 ; Pen up
G0 X16.743 Y55.833 F600
G1 Z10 F300 ; Pen down
G1 X16.743 Y52.264 F400
G1 X18.848 Y52.264 F400
G1 Z0 F300 ; Pen up
G0 X26.182 Y53.899 F600
G1 Z10 F300 ; Pen down
G1 X26.036 Y53.271 F400
G1 X25.613 Y52.711 F400
G1 X24.960 Y52.279 F400
G1 X24.147 Y52.024 F400
G1 X23.262 Y51.971 F400
G1 X22.402 Y52.127 F400
G1 X21.658 Y52.476 F400
G1 X21.113 Y52.978 F400
G1 X20.825 Y53.580 F400
G1 X20.825 Y54.217 F400
G1 X21.113 Y54.820 F400
G1 X21.658 Y55.322 F400
G1 X22.402 Y55.670 F400
G1 X23.262 Y55.827 F400
G1 X24.147 Y55.774 F400
G1 X24.960 Y55.518 F400
G1 X25.613 Y55.087 F400
G1 X26.036 Y54.527 F400
G1 X26.182 Y53.899 F400
G1 X26.182 Y53.899 F400
G1 Z0 F300 ; Pen up
G0 X36.770 Y55.833 F600
G1 Z10 F300 ; Pen down
G1 X36.770 Y49.195 F400
G1 X38.858 Y49.195 F400
G1 Z0 F300 ; Pen up
G0 X43.215 Y55.833 F600
G1 Z10 F300 ; Pen down
G1 X43.788 Y53.644 F400
G1 X44.361 Y51.719 F400
G1 X44.934 Y50.291 F400
G1 X45.506 Y49.531 F400
G1 X46.079 Y49.531 F400
G1 X46.652 Y50.291 F400
G1 X47.225 Y51.719 F400
G1 X47.798 Y53.644 F400
G1 X48.371 Y55.833 F400
G1 Z0 F300 ; Pen up
G0 X57.124 Y55.833 F600
G1 Z10 F300 ; Pen down
G1 X57.124 Y47.941 F400
G1 X60.069 Y47.941 F400
G1 Z0 F300 ; Pen up
G0 X60.307 Y55.833 F600
G1 Z10 F300 ; Pen down
G1 X61.262 Y53.141 F400
G1 X62.217 Y50.449 F400
G1 X63.172 Y54.218 F400
G1 Z0 F300 ; Pen up
G0 X63.490 Y55.833 F600
G1 Z10 F300 ; Pen down
G1 X64.445 Y52.895 F400
G1 X65.400 Y49.957 F400
G1 X66.355 Y54.071 F400
G1 Z0 F300 ; Pen up
G0 X66.673 Y55.833 F600
G1 Z10 F300 ; Pen down
G1 X66.956 Y53.779 F400
G1 X67.239 Y51.972 F400
G1 X67.522 Y50.631 F400
G1 X67.805 Y49.917 F400
G1 X68.088 Y49.917 F400
G1 X68.371 Y50.631 F400
G1 X68.654 Y51.972 F400
G1 X68.937 Y53.779 F400
G1 X69.220 Y55.833 F400
G1 Z0 F300 ; Pen up
G0 X69.856 Y54.829 F600
G1 Z10 F300 ; Pen down
G1 X70.493 Y53.791 F400
G1 X71.130 Y55.808 F400
G1 X71.766 Y54.486 F400
G1 X72.403 Y54.739 F400
G1 Z0 F300 ; Pen up
G0 X74.313 Y53.578 F600
G1 Z10 F300 ; Pen down
G1 X74.244 Y52.845 F400
G1 X74.044 Y52.192 F400
G1 X73.736 Y51.689 F400
G1 X73.352 Y51.391 F400
G1 X72.934 Y51.330 F400
G1 X72.528 Y51.512 F400
G1 X72.177 Y51.918 F400
G1 X71.920 Y52.504 F400
G1 X71.784 Y53.206 F400
G1 X71.784 Y53.949 F400
G1 X71.920 Y54.651 F400
G1 X72.177 Y55.237 F400
G1 X72.528 Y55.643 F400
G1 X72.934 Y55.826 F400
G1 X73.352 Y55.764 F400
G1 X73.736 Y55.466 F400
G1 X74.044 Y54.963 F400
G1 X74.244 Y54.310 F400
G1 X74.313 Y53.578 F400
G1 X74.313 Y53.578 F400
G1 Z0 F300 ; Pen up
G0 X78.552 Y52.574 F600
G1 Z10 F300 ; Pen down
G1 X78.524 Y52.773 F400
G1 X78.444 Y52.957 F400
G1 X78.318 Y53.113 F400
G1 X78.153 Y53.229 F400
G1 X77.964 Y53.296 F400
G1 X77.764 Y53.310 F400
G1 X77.567 Y53.269 F400
G1 X77.389 Y53.177 F400
G1 X77.242 Y53.039 F400
G1 X77.137 Y52.868 F400
G1 X77.083 Y52.674 F400
G1 X77.083 Y52.473 F400
G1 X77.137 Y52.280 F400
G1 X77.242 Y52.108 F400
G1 X77.389 Y51.971 F400
G1 X77.567 Y51.879 F400
G1 X77.764 Y51.838 F400
G1 X77.964 Y51.852 F400
G1 X78.153 Y51.919 F400
G1 X78.318 Y52.035 F400
G1 X78.444 Y52.191 F400
G1 X78.524 Y52.375 F400
G1 X78.552 Y52.574 F400
G1 X78.552 Y52.574 F400
G1 Z0 F300 ; Pen up
G0 X10 Y10 F600 ; Return to safe position
